{"fetched_at":"2026-03-29T16:36:15Z","count":15609,"tles":[{"name":"MOST","line1":"1 27843U 03031D   26087.88816942  .00000109  00000+0  70086-4 0  9994","line2":"2 27843  98.7079  96.7262 0010823 121.1901 239.0339 14.21304418179304","category":"Other"}]}